OBJECT_NAME,OBJECT_ID,EPOCH,MEAN_MOTION,ECCENTRICITY,INCLINATION,RA_OF_ASC_NODE,ARG_OF_PERICENTER,MEAN_ANOMALY,EPHEMERIS_TYPE,CLASSIFICATION_TYPE,NORAD_CAT_ID,ELEMENT_SET_NO,REV_AT_EPOCH,BSTAR,MEAN_MOTION_DOT,MEAN_MOTION_DDOT
STARLINK-32617,2024-217V,2026-06-24T06:00:02.000160,15.33539380,.00010393,53.1592,45.9343,90.9992,111.8570,0,U,62076,999,587,.13060042E-2,.42811E-3,0
STARLINK-11384 [DTC],2024-220A,2026-06-24T03:47:10.774176,15.70939434,.00010154,43.0000,121.6946,201.1256,158.9570,0,U,62088,999,9179,.13900288E-2,.182645E-2,0
STARLINK-11379 [DTC],2024-220B,2026-06-24T03:39:32.079168,15.70933475,.00010507,43.0003,121.6525,232.9439,127.1333,0,U,62089,999,9169,.13696821E-2,.179859E-2,0
STARLINK-11387 [DTC],2024-220C,2026-06-24T03:31:53.245920,15.70919134,.00020894,42.9987,121.6086,244.9970,115.0681,0,U,62090,999,9179,.13291571E-2,.174307E-2,0
STARLINK-11389 [DTC],2024-220D,2026-06-24T03:24:14.651136,15.70855632,.00017166,43.0001,121.5653,267.2077,92.8594,0,U,62091,999,9169,.11608632E-2,.151349E-2,0
STARLINK-11388 [DTC],2024-220E,2026-06-23T13:32:34.001952,15.70871153,.00006244,42.9998,124.9738,288.4398,71.6402,0,U,62092,999,9160,.96780541E-3,.125793E-2,0
STARLINK-11345 [DTC],2024-220F,2026-06-24T03:08:57.150528,15.70935759,.00018581,43.0006,121.4805,249.0627,111.0042,0,U,62093,999,9169,.19053056E-2,.252619E-2,0
STARLINK-11381 [DTC],2024-220G,2026-06-24T03:01:18.255072,15.70907907,.00018189,42.9991,121.4383,235.1711,124.8986,0,U,62094,999,9169,.17076503E-2,.225353E-2,0
STARLINK-11369 [DTC],2024-220H,2026-06-23T23:50:32.261280,15.70999675,.00021038,42.9997,122.1617,239.4794,120.5867,0,U,62095,999,9177,.17308276E-2,.229416E-2,0
STARLINK-11303 [DTC],2024-220J,2026-06-23T05:24:10.322208,15.70945156,.00033192,42.9982,126.7177,261.8490,98.2001,0,U,62096,999,9165,.16511433E-2,.218055E-2,0
STARLINK-11367 [DTC],2024-220K,2026-06-23T06:48:05.691744,15.70853799,.00014643,42.9995,126.2935,268.5782,91.4918,0,U,62097,999,9166,.10631448E-2,.13834E-2,0
STARLINK-11386 [DTC],2024-220L,2026-06-23T05:08:53.045376,15.70941273,.0002816,43.0003,126.6324,257.7094,102.3459,0,U,62098,999,9155,.15113434E-2,.199052E-2,0
STARLINK-11380 [DTC],2024-220M,2026-06-23T21:48:23.810688,15.70949244,.00027199,43.0018,122.3753,261.8300,98.2259,0,U,62099,999,9166,.15306195E-2,.201727E-2,0
STARLINK-33566,2024-220N,2026-06-24T02:11:34.842336,15.27589758,.00017075,43.0026,309.9369,273.2854,86.7802,0,U,62100,999,8963,.56421421E-3,.15301E-3,0
STARLINK-33545,2024-220P,2026-06-24T03:15:24.087744,15.27599040,.00028802,43.0020,324.1454,270.2251,89.8270,0,U,62101,999,8930,.58929017E-3,.15999E-3,0
STARLINK-33562,2024-220Q,2026-06-23T19:41:16.667520,15.27612258,.00020877,43.0025,326.0766,267.9336,92.1277,0,U,62102,999,8925,.97136759E-3,.26591E-3,0
STARLINK-33554,2024-220R,2026-06-24T03:09:51.505632,15.27597826,.00014032,43.0026,324.1138,268.7079,91.3612,0,U,62103,999,8923,.39617004E-3,.10661E-3,0
STARLINK-33555,2024-220S,2026-06-24T02:23:48.847488,15.27595428,.00015106,42.9998,324.7320,279.2238,80.8442,0,U,62104,999,8943,.64249404E-3,.17468E-3,0
STARLINK-33559,2024-220V,2026-06-23T18:27:29.094336,15.27587460,.00015,42.9992,326.5501,270.5394,89.5286,0,U,62107,999,8941,.4679573E-3,.1264E-3,0
STARLINK-33553,2024-220W,2026-06-23T16:42:13.594752,15.27596603,.00013156,43.0013,326.8640,269.5338,90.5363,0,U,62108,999,8940,.89277411E-3,.24399E-3,0
STARLINK-33556,2024-220X,2026-06-24T03:20:57.653952,15.27586094,.00017964,43.0042,324.1724,269.5056,90.5590,0,U,62109,999,8949,.98460705E-3,.26936E-3,0
STARLINK-33551,2024-220Y,2026-06-23T16:47:46.571712,15.27588199,.00014993,43.0011,326.8916,270.1889,89.8791,0,U,62110,999,8940,.51203771E-3,.13858E-3,0
STARLINK-32311,2024-222A,2026-06-23T21:17:23.020800,15.27587704,.00015387,42.9990,241.4564,259.3764,100.6915,0,U,62114,999,8932,.40095698E-3,.1079E-3,0
STARLINK-32470,2024-222B,2026-06-23T12:02:49.280928,15.27582478,.00021532,43.0005,258.4419,284.5572,75.5041,0,U,62115,999,8908,.42268938E-3,.11388E-3,0
STARLINK-32502,2024-222C,2026-06-23T21:59:12.870816,15.27580937,.00016083,42.9958,256.3809,281.1589,78.9082,0,U,62116,999,8905,.33265656E-3,.8903E-4,0
STARLINK-32521,2024-222D,2026-06-23T21:39:32.061024,15.27574998,.00010138,42.9979,252.7058,281.4191,78.6547,0,U,62117,999,8903,.31072563E-3,.8297E-4,0
STARLINK-32549,2024-222E,2026-06-23T22:41:33.351360,15.27588345,.00026174,43.0025,255.7499,275.0025,85.0528,0,U,62118,999,8906,.46324338E-3,.12511E-3,0
STARLINK-32535,2024-222F,2026-06-23T12:46:04.296288,15.27586372,.00012814,42.9995,255.2055,260.3223,99.7484,0,U,62119,999,8898,.34230936E-3,.9171E-4,0
STARLINK-32548,2024-222G,2026-06-23T22:19:33.930912,15.27586479,.00017402,43.0018,256.4907,274.6973,85.3680,0,U,62120,999,8900,.41411794E-3,.11153E-3,0
STARLINK-32525,2024-222H,2026-06-23T22:50:48.214752,15.27597162,.00024709,43.0008,255.7925,269.1174,90.9394,0,U,62121,999,8901,.74320721E-3,.20257E-3,0
