STARLINK-32617          
1 62076U 24217V   26175.25002315  .00042811  00000+0  13060-2 0  9993
2 62076  53.1592  45.9343 0001039  90.9992 111.8570 15.33539380  5870
STARLINK-11384 [DTC]    
1 62088U 24220A   26175.15776359  .00182645  00000+0  13900-2 0  9998
2 62088  43.0000 121.6946 0001015 201.1256 158.9570 15.70939434 91792
STARLINK-11379 [DTC]    
1 62089U 24220B   26175.15245462  .00179859  00000+0  13697-2 0  9991
2 62089  43.0003 121.6525 0001050 232.9439 127.1333 15.70933475 91696
STARLINK-11387 [DTC]    
1 62090U 24220C   26175.14714405  .00174307  00000+0  13292-2 0  9994
2 62090  42.9987 121.6086 0002089 244.9970 115.0681 15.70919134 91794
STARLINK-11389 [DTC]    
1 62091U 24220D   26175.14183624  .00151349  00000+0  11609-2 0  9999
2 62091  43.0001 121.5653 0001716 267.2077  92.8594 15.70855632 91691
STARLINK-11388 [DTC]    
1 62092U 24220E   26174.56428243  .00125793  00000+0  96781-3 0  9993
2 62092  42.9998 124.9738 0000624 288.4398  71.6402 15.70871153 91604
STARLINK-11345 [DTC]    
1 62093U 24220F   26175.13121702  .00252619  00000+0  19053-2 0  9992
2 62093  43.0006 121.4805 0001858 249.0627 111.0042 15.70935759 91693
STARLINK-11381 [DTC]    
1 62094U 24220G   26175.12590573  .00225353  00000+0  17077-2 0  9997
2 62094  42.9991 121.4383 0001818 235.1711 124.8986 15.70907907 91695
STARLINK-11369 [DTC]    
1 62095U 24220H   26174.99342895  .00229416  00000+0  17308-2 0  9995
2 62095  42.9997 122.1617 0002103 239.4794 120.5867 15.70999675 91779
STARLINK-11303 [DTC]    
1 62096U 24220J   26174.22511947  .00218055  00000+0  16511-2 0  9990
2 62096  42.9982 126.7177 0003319 261.8490  98.2001 15.70945156 91650
STARLINK-11367 [DTC]    
1 62097U 24220K   26174.28339921  .00138340  00000+0  10631-2 0  9992
2 62097  42.9995 126.2935 0001464 268.5782  91.4918 15.70853799 91663
STARLINK-11386 [DTC]    
1 62098U 24220L   26174.21450284  .00199052  00000+0  15113-2 0  9999
2 62098  43.0003 126.6324 0002816 257.7094 102.3459 15.70941273 91555
STARLINK-11380 [DTC]    
1 62099U 24220M   26174.90860892  .00201727  00000+0  15306-2 0  9993
2 62099  43.0018 122.3753 0002719 261.8300  98.2259 15.70949244 91668
STARLINK-33566          
1 62100U 24220N   26175.09137549  .00015301  00000+0  56421-3 0  9998
2 62100  43.0026 309.9369 0001707 273.2854  86.7802 15.27589758 89635
STARLINK-33545          
1 62101U 24220P   26175.13569546  .00015999  00000+0  58929-3 0  9998
2 62101  43.0020 324.1454 0002880 270.2251  89.8270 15.27599040 89307
STARLINK-33562          
1 62102U 24220Q   26174.82033180  .00026591  00000+0  97137-3 0  9998
2 62102  43.0025 326.0766 0002087 267.9336  92.1277 15.27612258 89251
STARLINK-33554          
1 62103U 24220R   26175.13184613  .00010661  00000+0  39617-3 0  9992
2 62103  43.0026 324.1138 0001403 268.7079  91.3612 15.27597826 89234
STARLINK-33555          
1 62104U 24220S   26175.09987092  .00017468  00000+0  64249-3 0  9991
2 62104  42.9998 324.7320 0001510 279.2238  80.8442 15.27595428 89435
STARLINK-33559          
1 62107U 24220V   26174.76908674  .00012640  00000+0  46796-3 0  9990
2 62107  42.9992 326.5501 0001500 270.5394  89.5286 15.27587460 89416
STARLINK-33553          
1 62108U 24220W   26174.69599068  .00024399  00000+0  89277-3 0  9991
2 62108  43.0013 326.8640 0001315 269.5338  90.5363 15.27596603 89406
STARLINK-33556          
1 62109U 24220X   26175.13955618  .00026936  00000+0  98461-3 0  9993
2 62109  43.0042 324.1724 0001796 269.5056  90.5590 15.27586094 89497
STARLINK-33551          
1 62110U 24220Y   26174.69984458  .00013858  00000+0  51204-3 0  9992
2 62110  43.0011 326.8916 0001499 270.1889  89.8791 15.27588199 89402
STARLINK-32311          
1 62114U 24222A   26174.88707200  .00010790  00000+0  40096-3 0  9996
2 62114  42.9990 241.4564 0001538 259.3764 100.6915 15.27587704 89328
STARLINK-32470          
1 62115U 24222B   26174.50195927  .00011388  00000+0  42269-3 0  9991
2 62115  43.0005 258.4419 0002153 284.5572  75.5041 15.27582478 89082
STARLINK-32502          
1 62116U 24222C   26174.91612119  .00008903  00000+0  33266-3 0  9990
2 62116  42.9958 256.3809 0001608 281.1589  78.9082 15.27580937 89050
STARLINK-32521          
1 62117U 24222D   26174.90245441  .00008297  00000+0  31073-3 0  9990
2 62117  42.9979 252.7058 0001013 281.4191  78.6547 15.27574998 89033
STARLINK-32549          
1 62118U 24222E   26174.94552490  .00012511  00000+0  46324-3 0  9999
2 62118  43.0025 255.7499 0002617 275.0025  85.0528 15.27588345 89061
STARLINK-32535          
1 62119U 24222F   26174.53199417  .00009171  00000+0  34231-3 0  9993
2 62119  42.9995 255.2055 0001281 260.3223  99.7484 15.27586372 88983
STARLINK-32548          
1 62120U 24222G   26174.93025383  .00011153  00000+0  41412-3 0  9991
2 62120  43.0018 256.4907 0001740 274.6973  85.3680 15.27586479 89003
STARLINK-32525          
1 62121U 24222H   26174.95194693  .00020257  00000+0  74321-3 0  9995
2 62121  43.0008 255.7925 0002470 269.1174  90.9394 15.27597162 89014
